sat06277
1 06277U 72062C   20046.86934611  .00000030  00000-0  12937-4 0  9998
2 06277  82.8586 337.1911 0005055 214.3251 204.2365 13.83309286385651
